{"type":"FeatureCollection","features":[{"type":"Feature","geometry":{"type":"MultiPolygon","coordinates":[[[[-119.37553158299,50.00504714932],[-119.37581935193,49.97707207104],[-119.36656640734,49.97732171417],[-119.36597265436,49.97330458257],[-119.3637896302,49.97313933928],[-119.36324127368,49.9684529603],[-119.36925226035,49.96841288291],[-119.37010620878,49.97042455271],[-119.37555075411,49.97045341195],[-119.37590312689,49.96031077076],[-119.36887932645,49.96035502266],[-119.36858890513,49.94517767337],[-119.36937793714,49.94516130081],[-119.36933888939,49.94467607221],[-119.36834870404,49.94471260564],[-119.36612646967,49.94177723485],[-119.3643983119,49.94078149343],[-119.36410357027,49.93989547498],[-119.37754664485,49.94000507167],[-119.37799498737,49.93563809294],[-119.37548001555,49.93539375668],[-119.37551660614,49.93126885194],[-119.38206098936,49.93120654513],[-119.38241374979,49.92907412959],[-119.37123889207,49.92946301343],[-119.37074882244,49.92356755738],[-119.37026081723,49.92357385882],[-119.3702373959,49.92302439508],[-119.37195708903,49.92263119033],[-119.37219519682,49.92184480093],[-119.36418837088,49.92166692436],[-119.36420031609,49.92013322854],[-119.35297707427,49.92027680237],[-119.351859657,49.91806617242],[-119.33125296726,49.91808029057],[-119.33167952367,49.90867562881],[-119.33075621519,49.8747029978],[-119.32007204516,49.87454690544],[-119.31996424046,49.85279085727],[-119.3422939039,49.85287159958],[-119.34208262992,49.83146239895],[-119.35397117952,49.83125345885],[-119.35411213796,49.82451724267],[-119.38897294223,49.82414017685],[-119.39229101404,49.82388375663],[-119.39283986689,49.8233620769],[-119.39370647947,49.82350045344],[-119.39565534489,49.82291794748],[-119.39810927821,49.82351569101],[-119.40962111409,49.82303431626],[-119.40975484473,49.81625790424],[-119.42136066355,49.81638233522],[-119.4213532987,49.80885281685],[-119.44435670743,49.80812520459],[-119.44403156999,49.79393242588],[-119.45543640163,49.79395219618],[-119.45549678537,49.7883290445],[-119.47931680508,49.78827908557],[-119.51284806078,49.78900333281],[-119.51254519775,49.7812998722],[-119.54488235012,49.78099837031],[-119.54494851446,49.77411706777],[-119.58884612267,49.77340073518],[-119.58890981907,49.78260213551],[-119.58142497311,49.78262420974],[-119.57814001338,49.78334982543],[-119.57667534141,49.7845561712],[-119.57466979678,49.78491192405],[-119.5706343168,49.78392883811],[-119.56875932774,49.78398951317],[-119.56805647837,49.78456330506],[-119.56312156903,49.78543627062],[-119.5617589576,49.78713365039],[-119.55425334831,49.78693440701],[-119.55266418016,49.78736514146],[-119.55050837872,49.78876499194],[-119.54648324587,49.78922179206],[-119.53982059211,49.79292826938],[-119.53806210275,49.79509413975],[-119.53445765733,49.79602627398],[-119.5264844961,49.80059971173],[-119.52433494004,49.80115151189],[-119.52122408243,49.80120073835],[-119.51846823757,49.80220506979],[-119.51350827519,49.8051502537],[-119.51103100647,49.80746649287],[-119.50929748654,49.80800119312],[-119.50187113108,49.81221118954],[-119.50328229824,49.81814454053],[-119.50493916858,49.81935117176],[-119.50225922857,49.82024036617],[-119.50150931583,49.82226509526],[-119.49918647929,49.82488029675],[-119.49939957651,49.82651449439],[-119.49724528068,49.8276015562],[-119.49599305264,49.82887715661],[-119.49333866881,49.82933568426],[-119.49210198945,49.83118614769],[-119.4883254715,49.832735748],[-119.48825116754,49.83416481444],[-119.48967252298,49.83781466446],[-119.4915498197,49.84018148978],[-119.49433045517,49.84243346113],[-119.49436736322,49.84336793468],[-119.49422577881,49.84400001024],[-119.49266748792,49.84433324712],[-119.49164692045,49.84530254932],[-119.49034373794,49.84518338535],[-119.48697719095,49.84866570828],[-119.48817285336,49.85111091582],[-119.4903882159,49.85352181892],[-119.49772768097,49.8601580631],[-119.49627017854,49.86040329936],[-119.49478388834,49.86212378319],[-119.49695194885,49.8657254403],[-119.49594818679,49.86898866],[-119.49730962204,49.8701415816],[-119.49849022802,49.86982731938],[-119.4994550375,49.87076407143],[-119.4983882529,49.87223350397],[-119.49783840402,49.87627057853],[-119.50082059855,49.87894734385],[-119.50343269506,49.88039460619],[-119.50439698179,49.88031227747],[-119.5039604741,49.8815709083],[-119.50483589989,49.8827812012],[-119.50404330111,49.88524552291],[-119.50003625155,49.8860611069],[-119.49771728744,49.88784720848],[-119.4976604304,49.88964133237],[-119.49911810622,49.88999497339],[-119.49826844813,49.89001000414],[-119.49890311867,49.89097730979],[-119.50099971982,49.89184748642],[-119.50096224135,49.89275972533],[-119.49961004523,49.89335898821],[-119.49949404832,49.89415552999],[-119.50016072993,49.89491437657],[-119.5017161782,49.89515520264],[-119.50193760225,49.89592420939],[-119.50109906284,49.89671359462],[-119.50449801067,49.89912381112],[-119.50113870811,49.90031575336],[-119.50043597628,49.9013607737],[-119.49621587463,49.90162899356],[-119.49401320035,49.90256447954],[-119.49355874054,49.90377964575],[-119.49444645512,49.90583876567],[-119.4977057811,49.9085388688],[-119.49747022035,49.91070391024],[-119.49292550394,49.91388736549],[-119.49128942922,49.91429189382],[-119.4897824388,49.91560944617],[-119.48832834571,49.91607873375],[-119.48819226378,49.91691208435],[-119.48445112548,49.91951108343],[-119.48169648681,49.92256632002],[-119.47869187406,49.92399770727],[-119.47791306482,49.92539925996],[-119.47603073132,49.92577464391],[-119.47456796731,49.92807093662],[-119.47282693547,49.92864756627],[-119.4711744581,49.93120137613],[-119.4697074948,49.93251827879],[-119.46757519127,49.93332912616],[-119.46653507316,49.9350691531],[-119.46628526529,49.93645943771],[-119.46744914233,49.93819858571],[-119.46696663808,49.94106954404],[-119.46496130012,49.94490798217],[-119.46523747753,49.94597295348],[-119.46361135646,49.9474018411],[-119.46486019394,49.95002961908],[-119.46275188078,49.95131522879],[-119.4618334384,49.95303465663],[-119.46280555886,49.95459667671],[-119.46233830637,49.95578546199],[-119.46464309535,49.95888535605],[-119.46254514472,49.96125071545],[-119.46176636033,49.9640193046],[-119.46047577917,49.96495490374],[-119.4596894195,49.96757157362],[-119.45770162016,49.96988090044],[-119.45629010081,49.97339230722],[-119.45335544568,49.97439020388],[-119.45355710767,49.97697714699],[-119.45265024501,49.97885797415],[-119.45357188391,49.98055570771],[-119.45148330119,49.98256068689],[-119.45104152119,49.98400923997],[-119.44911635416,49.98620994324],[-119.44736034448,49.99036683498],[-119.44803520074,49.99213339072],[-119.44669160119,49.9949598917],[-119.44716086558,49.99577649386],[-119.44480231656,49.99714071241],[-119.44260290217,49.99978790063],[-119.44227243316,50.00287877182],[-119.44096291048,50.00578419172],[-119.40882754714,50.00575079765],[-119.40287928357,50.00541509053],[-119.40294973056,50.00052272614],[-119.4039387004,49.99738483626],[-119.4034143675,49.99741646733],[-119.40395148631,49.9959206283],[-119.40302788919,49.99305135703],[-119.39455983165,49.98088279848],[-119.39212744454,49.9810765962],[-119.38648450608,49.983973921],[-119.38662843778,49.98534350185],[-119.38736404511,49.98594647036],[-119.3869141411,49.98652575278],[-119.38742863922,49.98826411097],[-119.38944511036,49.98969935695],[-119.39015311512,49.98957499298],[-119.39066928738,49.99098189449],[-119.39034737931,49.99364434857],[-119.38879908445,49.99617677558],[-119.38546841617,49.99670236897],[-119.38429425346,50.00573963867],[-119.39048296835,50.00602473314],[-119.39163583039,50.00759016326],[-119.39168536269,50.02014103875],[-119.39913224367,50.02011142186],[-119.3991163339,50.02254199461],[-119.39776613573,50.02246673695],[-119.39541628891,50.02598970113],[-119.39542358843,50.02191140089],[-119.39199149857,50.02185926106],[-119.39200474226,50.02471847281],[-119.38529087784,50.02486720984],[-119.38535763223,50.02009555219],[-119.37464513216,50.02000203834],[-119.37553158299,50.00504714932]]],[[[-119.39868352972,50.00326345375],[-119.40018771316,50.00510330986],[-119.39959072359,50.00448579599],[-119.39792045607,50.00466617745],[-119.39902128053,50.00407879075],[-119.39868352972,50.00326345375]]]]},"properties":{"a": "211.8491", "q": "0", "t": "CSD", "dw": "67115", "hh": "62209", "id": "5935010", "pop": "144576", "dw16": "57436", "hh16": "53906", "name": "Kelowna (CY)", "rgid": "59", "rpid": "5935", "ruid": "59915", "pop16": "127390"}}]}
